[{"OBJECT_NAME":"STARLINK-32518","OBJECT_ID":"2024-210J","EPOCH":"2026-03-04T18:15:57.785472","MEAN_MOTION":15.27609275,"ECCENTRICITY":0.0001616,"INCLINATION":43.0041,"RA_OF_ASC_NODE":200.7692,"ARG_OF_PERICENTER":272.2467,"MEAN_ANOMALY":87.8199,"EPHEMERIS_TYPE":0,"CLASSIFICATION_TYPE":"U","NORAD_CAT_ID":61967,"ELEMENT_SET_NO":999,"REV_AT_EPOCH":7410,"BSTAR":0.0011151,"MEAN_MOTION_DOT":0.00030579,"MEAN_MOTION_DDOT":0},{"OBJECT_NAME":"STARLINK-32471","OBJECT_ID":"2024-210K","EPOCH":"2026-03-04T09:33:24.560352","MEAN_MOTION":15.27641979,"ECCENTRICITY":0.00031048,"INCLINATION":42.9963,"RA_OF_ASC_NODE":202.5325,"ARG_OF_PERICENTER":283.4234,"MEAN_ANOMALY":76.6272,"EPHEMERIS_TYPE":0,"CLASSIFICATION_TYPE":"U","NORAD_CAT_ID":61968,"ELEMENT_SET_NO":999,"REV_AT_EPOCH":7419,"BSTAR":0.0013156656,"MEAN_MOTION_DOT":0.00036192,"MEAN_MOTION_DDOT":0},{"OBJECT_NAME":"STARLINK-32450","OBJECT_ID":"2024-210L","EPOCH":"2026-03-05T01:20:33.363744","MEAN_MOTION":15.27578857,"ECCENTRICITY":0.0001397,"INCLINATION":42.9951,"RA_OF_ASC_NODE":198.8697,"ARG_OF_PERICENTER":23.3113,"MEAN_ANOMALY":336.7802,"EPHEMERIS_TYPE":0,"CLASSIFICATION_TYPE":"U","NORAD_CAT_ID":61969,"ELEMENT_SET_NO":999,"REV_AT_EPOCH":7415,"BSTAR":0.001125,"MEAN_MOTION_DOT":0.00030824,"MEAN_MOTION_DDOT":0},{"OBJECT_NAME":"STARLINK-32613","OBJECT_ID":"2024-210M","EPOCH":"2026-03-05T02:18:21.254976","MEAN_MOTION":15.27598828,"ECCENTRICITY":0.0001517,"INCLINATION":43.0012,"RA_OF_ASC_NODE":206.0899,"ARG_OF_PERICENTER":272.9864,"MEAN_ANOMALY":87.0814,"EPHEMERIS_TYPE":0,"CLASSIFICATION_TYPE":"U","NORAD_CAT_ID":61970,"ELEMENT_SET_NO":999,"REV_AT_EPOCH":7421,"BSTAR":0.0013266,"MEAN_MOTION_DOT":0.00036445,"MEAN_MOTION_DDOT":0},{"OBJECT_NAME":"STARLINK-32610","OBJECT_ID":"2024-210N","EPOCH":"2026-03-05T02:07:15.576672","MEAN_MOTION":15.27587794,"ECCENTRICITY":0.000111,"INCLINATION":43.0021,"RA_OF_ASC_NODE":206.0281,"ARG_OF_PERICENTER":274.08,"MEAN_ANOMALY":85.9925,"EPHEMERIS_TYPE":0,"CLASSIFICATION_TYPE":"U","NORAD_CAT_ID":61971,"ELEMENT_SET_NO":999,"REV_AT_EPOCH":7421,"BSTAR":0.0008419,"MEAN_MOTION_DOT":0.00022983,"MEAN_MOTION_DDOT":0},{"OBJECT_NAME":"STARLINK-32612","OBJECT_ID":"2024-210P","EPOCH":"2026-03-04T10:31:14.860416","MEAN_MOTION":15.27612193,"ECCENTRICITY":0.00014304,"INCLINATION":42.9992,"RA_OF_ASC_NODE":209.7505,"ARG_OF_PERICENTER":275.1948,"MEAN_ANOMALY":84.874,"EPHEMERIS_TYPE":0,"CLASSIFICATION_TYPE":"U","NORAD_CAT_ID":61972,"ELEMENT_SET_NO":999,"REV_AT_EPOCH":7407,"BSTAR":0.001535704,"MEAN_MOTION_DOT":0.00042282,"MEAN_MOTION_DDOT":0},{"OBJECT_NAME":"STARLINK-32601","OBJECT_ID":"2024-210Q","EPOCH":"2026-03-04T18:47:42.412128","MEAN_MOTION":15.27616103,"ECCENTRICITY":0.000209,"INCLINATION":43.0053,"RA_OF_ASC_NODE":207.188,"ARG_OF_PERICENTER":283.0095,"MEAN_ANOMALY":77.0524,"EPHEMERIS_TYPE":0,"CLASSIFICATION_TYPE":"U","NORAD_CAT_ID":61973,"ELEMENT_SET_NO":999,"REV_AT_EPOCH":7413,"BSTAR":0.0010449,"MEAN_MOTION_DOT":0.00028635,"MEAN_MOTION_DDOT":0},{"OBJECT_NAME":"STARLINK-32593","OBJECT_ID":"2024-210R","EPOCH":"2026-03-04T10:46:02.752608","MEAN_MOTION":15.2762964,"ECCENTRICITY":0.00024995,"INCLINATION":43.0028,"RA_OF_ASC_NODE":209.8324,"ARG_OF_PERICENTER":280.969,"MEAN_ANOMALY":79.088,"EPHEMERIS_TYPE":0,"CLASSIFICATION_TYPE":"U","NORAD_CAT_ID":61974,"ELEMENT_SET_NO":999,"REV_AT_EPOCH":7407,"BSTAR":0.0019907255,"MEAN_MOTION_DOT":0.00055014,"MEAN_MOTION_DDOT":0},{"OBJECT_NAME":"STARLINK-32586","OBJECT_ID":"2024-210S","EPOCH":"2026-03-05T01:46:54.166656","MEAN_MOTION":15.27599818,"ECCENTRICITY":0.0002649,"INCLINATION":43.0016,"RA_OF_ASC_NODE":205.9214,"ARG_OF_PERICENTER":278.148,"MEAN_ANOMALY":81.9071,"EPHEMERIS_TYPE":0,"CLASSIFICATION_TYPE":"U","NORAD_CAT_ID":61975,"ELEMENT_SET_NO":999,"REV_AT_EPOCH":7417,"BSTAR":0.0014824,"MEAN_MOTION_DOT":0.00040784,"MEAN_MOTION_DDOT":0},{"OBJECT_NAME":"STARLINK-32611","OBJECT_ID":"2024-210T","EPOCH":"2026-03-04T17:50:33.982368","MEAN_MOTION":15.27610376,"ECCENTRICITY":0.000153,"INCLINATION":43.0001,"RA_OF_ASC_NODE":207.7432,"ARG_OF_PERICENTER":279.4332,"MEAN_ANOMALY":80.6347,"EPHEMERIS_TYPE":0,"CLASSIFICATION_TYPE":"U","NORAD_CAT_ID":61976,"ELEMENT_SET_NO":999,"REV_AT_EPOCH":7412,"BSTAR":0.0012932,"MEAN_MOTION_DOT":0.00035529,"MEAN_MOTION_DDOT":0},{"OBJECT_NAME":"STARLINK-32607","OBJECT_ID":"2024-210U","EPOCH":"2026-03-04T18:10:56.836128","MEAN_MOTION":15.2757597,"ECCENTRICITY":0.0001886,"INCLINATION":43.0006,"RA_OF_ASC_NODE":207.8421,"ARG_OF_PERICENTER":262.0003,"MEAN_ANOMALY":98.0635,"EPHEMERIS_TYPE":0,"CLASSIFICATION_TYPE":"U","NORAD_CAT_ID":61977,"ELEMENT_SET_NO":999,"REV_AT_EPOCH":7416,"BSTAR":0.0011115,"MEAN_MOTION_DOT":0.00030448,"MEAN_MOTION_DDOT":0},{"OBJECT_NAME":"STARLINK-32606","OBJECT_ID":"2024-210V","EPOCH":"2026-03-04T09:37:35.125536","MEAN_MOTION":15.27616646,"ECCENTRICITY":0.00048236,"INCLINATION":43.0015,"RA_OF_ASC_NODE":209.4669,"ARG_OF_PERICENTER":293.8425,"MEAN_ANOMALY":66.1921,"EPHEMERIS_TYPE":0,"CLASSIFICATION_TYPE":"U","NORAD_CAT_ID":61978,"ELEMENT_SET_NO":999,"REV_AT_EPOCH":7407,"BSTAR":0.0014948115,"MEAN_MOTION_DOT":0.00041158,"MEAN_MOTION_DDOT":0},{"OBJECT_NAME":"STARLINK-32578","OBJECT_ID":"2024-210W","EPOCH":"2026-03-04T19:04:22.251072","MEAN_MOTION":15.27587049,"ECCENTRICITY":9.45e-5,"INCLINATION":43.0008,"RA_OF_ASC_NODE":207.2667,"ARG_OF_PERICENTER":238.3722,"MEAN_ANOMALY":121.7038,"EPHEMERIS_TYPE":0,"CLASSIFICATION_TYPE":"U","NORAD_CAT_ID":61979,"ELEMENT_SET_NO":999,"REV_AT_EPOCH":7417,"BSTAR":0.0014446,"MEAN_MOTION_DOT":0.00039713,"MEAN_MOTION_DDOT":0},{"OBJECT_NAME":"STARLINK-32517","OBJECT_ID":"2024-210X","EPOCH":"2026-03-04T10:42:20.824704","MEAN_MOTION":15.27627844,"ECCENTRICITY":0.00021392,"INCLINATION":43.0017,"RA_OF_ASC_NODE":209.8099,"ARG_OF_PERICENTER":291.8057,"MEAN_ANOMALY":68.2567,"EPHEMERIS_TYPE":0,"CLASSIFICATION_TYPE":"U","NORAD_CAT_ID":61980,"ELEMENT_SET_NO":999,"REV_AT_EPOCH":7402,"BSTAR":0.001768209,"MEAN_MOTION_DOT":0.0004879,"MEAN_MOTION_DDOT":0},{"OBJECT_NAME":"STARLINK-32522","OBJECT_ID":"2024-210Y","EPOCH":"2026-03-04T09:54:14.688000","MEAN_MOTION":15.27608408,"ECCENTRICITY":0.00012671,"INCLINATION":42.9952,"RA_OF_ASC_NODE":209.5625,"ARG_OF_PERICENTER":335.8284,"MEAN_ANOMALY":24.2508,"EPHEMERIS_TYPE":0,"CLASSIFICATION_TYPE":"U","NORAD_CAT_ID":61981,"ELEMENT_SET_NO":999,"REV_AT_EPOCH":7407,"BSTAR":0.0012688442,"MEAN_MOTION_DOT":0.00034849,"MEAN_MOTION_DDOT":0},{"OBJECT_NAME":"STARLINK-32560","OBJECT_ID":"2024-210Z","EPOCH":"2026-03-04T09:33:53.318592","MEAN_MOTION":15.27610064,"ECCENTRICITY":0.00017803,"INCLINATION":43.0023,"RA_OF_ASC_NODE":209.4571,"ARG_OF_PERICENTER":276.861,"MEAN_ANOMALY":83.2039,"EPHEMERIS_TYPE":0,"CLASSIFICATION_TYPE":"U","NORAD_CAT_ID":61982,"ELEMENT_SET_NO":999,"REV_AT_EPOCH":7407,"BSTAR":0.0015128197,"MEAN_MOTION_DOT":0.00041641,"MEAN_MOTION_DDOT":0}]
