STARLINK-32518          
1 61967U 24210J   26063.76108548  .00030579  00000+0  11151-2 0  9998
2 61967  43.0041 200.7692 0001616 272.2467  87.8199 15.27609275 74101
STARLINK-32471          
1 61968U 24210K   26063.39820093  .00036192  00000+0  13157-2 0  9999
2 61968  42.9963 202.5325 0003104 283.4234  76.6272 15.27641979 74190
STARLINK-32450          
1 61969U 24210L   26064.05594171  .00030824  00000+0  11250-2 0  9997
2 61969  42.9951 198.8697 0001397  23.3113 336.7802 15.27578857 74155
STARLINK-32613          
1 61970U 24210M   26064.09607934  .00036445  00000+0  13266-2 0  9999
2 61970  43.0012 206.0899 0001517 272.9864  87.0814 15.27598828 74218
STARLINK-32610          
1 61971U 24210N   26064.08837473  .00022983  00000+0  84190-3 0  9999
2 61971  43.0021 206.0281 0001110 274.0800  85.9925 15.27587794 74216
STARLINK-32612          
1 61972U 24210P   26063.43836644  .00042282  00000+0  15357-2 0  9999
2 61972  42.9992 209.7505 0001430 275.1948  84.8740 15.27612193 74070
STARLINK-32601          
1 61973U 24210Q   26063.78312977  .00028635  00000+0  10449-2 0  9999
2 61973  43.0053 207.1880 0002090 283.0095  77.0524 15.27616103 74139
STARLINK-32593          
1 61974U 24210R   26063.44864297  .00055014  00000+0  19907-2 0  9999
2 61974  43.0028 209.8324 0002499 280.9690  79.0880 15.27629640 74074
STARLINK-32586          
1 61975U 24210S   26064.07423804  .00040784  00000+0  14824-2 0  9996
2 61975  43.0016 205.9214 0002649 278.1480  81.9071 15.27599818 74178
STARLINK-32611          
1 61976U 24210T   26063.74344887  .00035529  00000+0  12932-2 0  9992
2 61976  43.0001 207.7432 0001530 279.4332  80.6347 15.27610376 74123
STARLINK-32607          
1 61977U 24210U   26063.75760227  .00030448  00000+0  11115-2 0  9991
2 61977  43.0006 207.8421 0001886 262.0003  98.0635 15.27575970 74162
STARLINK-32606          
1 61978U 24210V   26063.40110099  .00041158  00000+0  14948-2 0  9997
2 61978  43.0015 209.4669 0004823 293.8425  66.1921 15.27616646 74079
STARLINK-32578          
1 61979U 24210W   26063.79470198  .00039713  00000+0  14446-2 0  9996
2 61979  43.0008 207.2667 0000945 238.3722 121.7038 15.27587049 74173
STARLINK-32517          
1 61980U 24210X   26063.44607436  .00048790  00000+0  17682-2 0  9997
2 61980  43.0017 209.8099 0002139 291.8057  68.2567 15.27627844 74028
STARLINK-32522          
1 61981U 24210Y   26063.41267000  .00034849  00000+0  12688-2 0  9995
2 61981  42.9952 209.5625 0001267 335.8284  24.2508 15.27608408 74076
STARLINK-32560          
1 61982U 24210Z   26063.39853378  .00041641  00000+0  15128-2 0  9992
2 61982  43.0023 209.4571 0001780 276.8610  83.2039 15.27610064 74079
